{
  "type": "FeatureCollection",
  "features": [
    {
      "type": "Feature",
      "properties": {
        "source": "combined-boundaries",
        "name": "금정산 경계"
      },
      "geometry": {
        "type": "Polygon",
        "coordinates": [
          [
            [
              129.0672362,
              35.1726406
            ],
            [
              129.0705836,
              35.1847774
            ],
            [
              129.0625155,
              35.1979643
            ],
            [
              129.0548766,
              35.1963512
            ],
            [
              129.0552199,
              35.199858
            ],
            [
              129.0637172,
              35.202944
            ],
            [
              129.0692962,
              35.2093259
            ],
            [
              129.0774501,
              35.2150061
            ],
            [
              129.0814841,
              35.2221583
            ],
            [
              129.080025,
              35.2304317
            ],
            [
              129.0819133,
              35.2359702
            ],
            [
              129.0886081,
              35.2440318
            ],
            [
              129.0877498,
              35.2527936
            ],
            [
              129.0887774,
              35.2721397
            ],
            [
              129.0953005,
              35.2734011
            ],
            [
              129.0954722,
              35.2834909
            ],
            [
              129.0906657,
              35.2952608
            ],
            [
              129.0839709,
              35.302546
            ],
            [
              129.0786494,
              35.3035267
            ],
            [
              129.0752161,
              35.3019857
            ],
            [
              129.0748728,
              35.3060483
            ],
            [
              129.0704096,
              35.3147334
            ],
            [
              129.0604533,
              35.3227172
            ],
            [
              129.0520418,
              35.3280393
            ],
            [
              129.0388239,
              35.3337812
            ],
            [
              129.0329874,
              35.3304201
            ],
            [
              129.0298355,
              35.3218508
            ],
            [
              129.0286339,
              35.3135868
            ],
            [
              129.0266598,
              35.3076333
            ],
            [
              129.0261448,
              35.3053219
            ],
            [
              129.0275337,
              35.3034912
            ],
            [
              129.0283062,
              35.3025805
            ],
            [
              129.0266754,
              35.3010395
            ],
            [
              129.0265895,
              35.2990081
            ],
            [
              129.0252162,
              35.2976771
            ],
            [
              129.0250017,
              35.2964862
            ],
            [
              129.0262891,
              35.2960659
            ],
            [
              129.0249158,
              35.2937541
            ],
            [
              129.0238,
              35.2918626
            ],
            [
              129.0212251,
              35.2907417
            ],
            [
              129.0190794,
              35.2900411
            ],
            [
              129.018736,
              35.285277
            ],
            [
              129.0165903,
              35.2815636
            ],
            [
              129.0158178,
              35.2772194
            ],
            [
              129.0169336,
              35.2708428
            ],
            [
              129.0171052,
              35.2680398
            ],
            [
              129.0203668,
              35.2655871
            ],
            [
              129.0186502,
              35.2627138
            ],
            [
              129.0159894,
              35.2616625
            ],
            [
              129.0134145,
              35.2580181
            ],
            [
              129.0120412,
              35.2540306
            ],
            [
              129.0130712,
              35.2531194
            ],
            [
              129.013157,
              35.2485634
            ],
            [
              129.0125562,
              35.2461101
            ],
            [
              129.0130712,
              35.2413434
            ],
            [
              129.0151311,
              35.2404321
            ],
            [
              129.020281,
              35.2427454
            ],
            [
              129.02483,
              35.2428155
            ],
            [
              129.0224697,
              35.2398713
            ],
            [
              129.0191223,
              35.235665
            ],
            [
              129.0174057,
              35.234964
            ],
            [
              129.0134574,
              35.2266911
            ],
            [
              129.0110542,
              35.2231152
            ],
            [
              129.0089942,
              35.2181368
            ],
            [
              129.0102817,
              35.2145606
            ],
            [
              129.01114,
              35.2135789
            ],
            [
              129.0152599,
              35.2125971
            ],
            [
              129.0196373,
              35.2132984
            ],
            [
              129.0204956,
              35.2149112
            ],
            [
              129.0201947,
              35.2167858
            ],
            [
              129.0206637,
              35.2165607
            ],
            [
              129.0201947,
              35.2167858
            ],
            [
              129.0206637,
              35.2165607
            ],
            [
              129.0221228,
              35.2154037
            ],
            [
              129.0242686,
              35.2142817
            ],
            [
              129.0268864,
              35.2145973
            ],
            [
              129.0297188,
              35.2132649
            ],
            [
              129.0335097,
              35.2142087
            ],
            [
              129.0347114,
              35.2154008
            ],
            [
              129.0385402,
              35.2170729
            ],
            [
              129.0399994,
              35.2179143
            ],
            [
              129.0430893,
              35.2163015
            ],
            [
              129.0442051,
              35.2144082
            ],
            [
              129.046265,
              35.2139875
            ],
            [
              129.0436043,
              35.2095695
            ],
            [
              129.0411152,
              35.2073955
            ],
            [
              129.0362801,
              35.2056493
            ],
            [
              129.0338768,
              35.2052986
            ],
            [
              129.0296711,
              35.2082441
            ],
            [
              129.0240063,
              35.2106284
            ],
            [
              129.0189423,
              35.2111193
            ],
            [
              129.0126766,
              35.2100674
            ],
            [
              129.0107768,
              35.2084522
            ],
            [
              129.0116351,
              35.205647
            ],
            [
              129.0082019,
              35.2055067
            ],
            [
              129.0060561,
              35.2036132
            ],
            [
              129.0055411,
              35.2003169
            ],
            [
              129.007601,
              35.1984232
            ],
            [
              129.0106909,
              35.1977218
            ],
            [
              129.0138353,
              35.1973461
            ],
            [
              129.0136637,
              35.1959433
            ],
            [
              129.0082564,
              35.1940496
            ],
            [
              129.0037073,
              35.1945405
            ],
            [
              128.9981283,
              35.1974163
            ],
            [
              128.9954676,
              35.1939794
            ],
            [
              128.9939226,
              35.1894201
            ],
            [
              128.993236,
              35.1864038
            ],
            [
              128.9968409,
              35.1861232
            ],
            [
              129.0017332,
              35.1853516
            ],
            [
              129.0002741,
              35.1830366
            ],
            [
              128.9965834,
              35.1812828
            ],
            [
              128.9984717,
              35.1770034
            ],
            [
              128.9945234,
              35.17546
            ],
            [
              128.9952959,
              35.1715311
            ],
            [
              128.9933218,
              35.1692859
            ],
            [
              128.9952959,
              35.1715311
            ],
            [
              128.9945234,
              35.17546
            ],
            [
              128.9952959,
              35.1715311
            ],
            [
              128.9933218,
              35.1692859
            ],
            [
              128.994266,
              35.1679528
            ],
            [
              128.9970984,
              35.1661285
            ],
            [
              128.9978708,
              35.1616378
            ],
            [
              128.9978708,
              35.1575302
            ],
            [
              128.9998449,
              35.1545127
            ],
            [
              129.003891,
              35.1548081
            ],
            [
              129.0072384,
              35.1529134
            ],
            [
              129.0142765,
              35.1536151
            ],
            [
              129.0193981,
              35.1569703
            ],
            [
              129.0260071,
              35.1601982
            ],
            [
              129.0246338,
              35.1667238
            ],
            [
              129.0293545,
              35.1688287
            ],
            [
              129.0280137,
              35.1711407
            ],
            [
              129.0305886,
              35.1715616
            ],
            [
              129.0312752,
              35.1735261
            ],
            [
              129.0311894,
              35.1752801
            ],
            [
              129.0323052,
              35.1754905
            ],
            [
              129.0335927,
              35.1736664
            ],
            [
              129.0365109,
              35.1721931
            ],
            [
              129.0397725,
              35.1704391
            ],
            [
              129.0426049,
              35.1685447
            ],
            [
              129.0451798,
              35.167843
            ],
            [
              129.0486989,
              35.1680535
            ],
            [
              129.0492997,
              35.1710004
            ],
            [
              129.048613,
              35.1735963
            ],
            [
              129.0460381,
              35.1768937
            ],
            [
              129.0481818,
              35.1828833
            ],
            [
              129.0514455,
              35.1817343
            ],
            [
              129.0533337,
              35.1816641
            ],
            [
              129.0544495,
              35.1796999
            ],
            [
              129.0555653,
              35.1792088
            ],
            [
              129.0549645,
              35.1765429
            ],
            [
              129.0549645,
              35.1739471
            ],
            [
              129.0569365,
              35.1716584
            ],
            [
              129.0624297,
              35.170185
            ],
            [
              129.0672362,
              35.1726406
            ]
          ]
        ]
      }
    }
  ]
}